LEMUR-2-PETERG          
1 42841U 17042S   26068.48235713  .00023240  00000+0  81076-3 0  9993
2 42841  97.3980 253.6596 0003700 341.6938  18.4169 15.29611459473171
STARLINK-30962          
1 58458U 23183X   26068.30330837 -.00001070  00000+0 -30200-4 0  9994
2 58458  43.0039  43.0767 0002305 272.6692  87.3895 15.26735702126683
